NORAD_CAT_ID,OBJECT_NAME,OBJECT_TYPE,EPOCH,MEAN_MOTION,ECCENTRICITY,INCLINATION,RA_OF_ASC_NODE,ARG_OF_PERICENTER,MEAN_ANOMALY,BSTAR,MEAN_MOTION_DOT,MEAN_MOTION_DDOT,TLE_LINE0,TLE_LINE1,TLE_LINE2,SEMIMAJOR_AXIS,PERIOD,APOGEE,PERIGEE,DECAYED
52453.0,STARLINK-3872,PAYLOAD,2024-05-12 09:29:46,15.08737835,6.98e-05,53.215,180.2313,83.5229,276.5842,-0.00077351,-0.00012542,0.0,0 STARLINK-3872,1 52453U 22049C   24133.39567378 -.00012542  00000-0 -77351-3 0  9999,2 52453  53.2150 180.2313 0000698  83.5229 276.5842 15.08737835111685,6918.193,95.444,540.541,539.575,0.0
52453.0,STARLINK-3872,PAYLOAD,2024-05-12 14:15:57,15.08722459,9.79e-05,53.215,179.3378,92.6588,267.4516,0.0011304,0.0001769,0.0,0 STARLINK-3872,1 52453U 22049C   24133.59441460  .00017690  00000-0  11304-2 0  9996,2 52453  53.2150 179.3378 0000979  92.6588 267.4516 15.08722459111555,6918.24,95.445,540.782,539.427,0.0
52453.0,STARLINK-3872,PAYLOAD,2024-05-12 20:37:31,15.08741671,0.0001319,53.2171,178.1453,110.9263,249.1871,0.001407,0.00022115,0.0,0 STARLINK-3872,1 52453U 22049C   24133.85939127  .00022115  00000-0  14070-2 0  9998,2 52453  53.2171 178.1453 0001319 110.9263 249.1871 15.08741671111594,6918.181,95.444,540.958,539.133,0.0
52453.0,STARLINK-3872,PAYLOAD,2024-05-13 02:59:04,15.08785852,8.88e-05,53.2164,176.9597,295.3182,64.7719,0.0019524,0.00030875,0.0,0 STARLINK-3872,1 52453U 22049C   24134.12435276  .00030875  00000-0  19524-2 0  9996,2 52453  53.2164 176.9597 0000888 295.3182  64.7719 15.08785852111792,6918.046,95.441,540.525,539.297,0.0
52453.0,STARLINK-3872,PAYLOAD,2024-05-13 09:20:36,15.08847908,0.0001019,53.216,175.7706,48.6306,311.4773,0.0017594,0.0002783,0.0,0 STARLINK-3872,1 52453U 22049C   24134.38931265  .00027830  00000-0  17594-2 0  9995,2 52453  53.2160 175.7706 0001019  48.6306 311.4773 15.08847908111839,6917.856,95.437,540.426,539.016,0.0
52453.0,STARLINK-3872,PAYLOAD,2024-05-14 02:49:50,15.08859296,0.000117,53.2159,172.4999,53.681,306.429,0.00089374,0.00013972,0.0,0 STARLINK-3872,1 52453U 22049C   24135.11794666  .00013972  00000-0  89374-3 0  9997,2 52453  53.2159 172.4999 0001170  53.6810 306.4290 15.08859296111942,6917.821,95.436,540.496,538.877,0.0
52453.0,STARLINK-3872,PAYLOAD,2024-05-14 12:22:08,15.08865281,0.0001182,53.2154,170.7152,57.7449,302.3657,0.0006205,9.608e-05,0.0,0 STARLINK-3872,1 52453U 22049C   24135.51538082  .00009608  00000-0  62050-3 0  9992,2 52453  53.2154 170.7152 0001182  57.7449 302.3657 15.08865281111847,6917.803,95.436,540.486,538.85,0.0
52453.0,STARLINK-3872,PAYLOAD,2024-05-15 05:51:22,15.08861734,0.0001222,53.2152,167.4439,59.2344,300.8768,0.00025356,3.752e-05,0.0,0 STARLINK-3872,1 52453U 22049C   24136.24401252  .00003752  00000-0  25356-3 0  9993,2 52453  53.2152 167.4439 0001222  59.2344 300.8768 15.08861734112118,6917.814,95.436,540.524,538.834,0.0
52453.0,STARLINK-3872,PAYLOAD,2024-05-15 09:02:09,15.08843655,0.0001217,53.2158,166.8495,68.0879,292.0242,-0.00019453,-3.383e-05,0.0,0 STARLINK-3872,1 52453U 22049C   24136.37649549 -.00003383  00000-0 -19453-3 0  9993,2 52453  53.2158 166.8495 0001217  68.0879 292.0242 15.08843655112137,6917.869,95.437,540.576,538.892,0.0
52453.0,STARLINK-3872,PAYLOAD,2024-05-16 10:28:19,15.08849736,0.0001136,53.2156,162.092,71.7598,288.3518,0.00061027,9.44e-05,0.0,0 STARLINK-3872,1 52453U 22049C   24137.43633422  .00009440  00000-0  61027-3 0  9996,2 52453  53.2156 162.0920 0001136  71.7598 288.3518 15.08849736112292,6917.851,95.437,540.501,538.93,0.0
52453.0,STARLINK-3872,PAYLOAD,2024-05-16 18:25:14,15.08865276,0.0001193,53.2157,160.6044,69.3995,290.7125,0.00095539,0.0001496,0.0,0 STARLINK-3872,1 52453U 22049C   24137.76752896  .00014960  00000-0  95539-3 0  9997,2 52453  53.2157 160.6044 0001193  69.3995 290.7125 15.08865276112187,6917.803,95.436,540.493,538.843,0.0
52453.0,STARLINK-3872,PAYLOAD,2024-05-17 05:32:56,15.0885054,0.000219,53.2155,158.5233,76.8909,283.2328,0.0002624,3.892e-05,0.0,0 STARLINK-3872,1 52453U 22049C   24138.23121259  .00003892  00000-0  26240-3 0  9998,2 52453  53.2155 158.5233 0002190  76.8909 283.2328 15.08850540112413,6917.848,95.437,541.228,538.198,0.0
52453.0,STARLINK-3872,PAYLOAD,2024-05-17 10:19:05,15.08847946,0.0001213,53.2151,157.6317,81.6056,278.5074,0.00020808,3.026e-05,0.0,0 STARLINK-3872,1 52453U 22049C   24138.42992960  .00003026  00000-0  20808-3 0  9997,2 52453  53.2151 157.6317 0001213  81.6056 278.5074 15.08847946112280,6917.856,95.437,540.56,538.882,0.0
52453.0,STARLINK-3872,PAYLOAD,2024-05-17 18:16:01,15.08847697,0.0001246,53.2147,156.1445,82.9259,277.1875,0.0003991,6.071e-05,0.0,0 STARLINK-3872,1 52453U 22049C   24138.76112933  .00006071  00000-0  39910-3 0  9995,2 52453  53.2147 156.1445 0001246  82.9259 277.1875 15.08847697112496,6917.857,95.437,540.584,538.86,0.0
52453.0,STARLINK-3872,PAYLOAD,2024-05-18 05:23:43,15.0884015,0.0001836,53.2139,154.0624,83.1516,276.9685,0.00026272,3.896e-05,0.0,0 STARLINK-3872,1 52453U 22049C   24139.22481288  .00003896  00000-0  26272-3 0  9998,2 52453  53.2139 154.0624 0001836  83.1516 276.9685 15.08840150112568,6917.88,95.438,541.015,538.475,0.0
52453.0,STARLINK-3872,PAYLOAD,2024-05-18 08:34:29,15.08842877,0.0001393,53.2154,153.4685,79.1127,281.0022,4.1781e-05,3.77e-06,0.0,0 STARLINK-3872,1 52453U 22049C   24139.35729159  .00000377  00000-0  41781-4 0  9998,2 52453  53.2154 153.4685 0001393  79.1127 281.0022 15.08842877112421,6917.872,95.437,540.7,538.773,0.0
52453.0,STARLINK-3872,PAYLOAD,2024-05-18 18:06:48,15.08849426,0.0001421,53.2151,151.6826,75.859,284.256,0.0001877,2.701e-05,0.0,0 STARLINK-3872,1 52453U 22049C   24139.75472825  .00002701  00000-0  18770-3 0  9991,2 52453  53.2151 151.6826 0001421  75.8590 284.2560 15.08849426112489,6917.852,95.437,540.7,538.734,0.0
52453.0,STARLINK-3872,PAYLOAD,2024-05-19 10:00:40,15.08836287,0.0001223,53.2147,148.7105,95.6926,264.4205,2.5823e-05,1.23e-06,0.0,0 STARLINK-3872,1 52453U 22049C   24140.41713462  .00000123  00000-0  25823-4 0  9995,2 52453  53.2147 148.7105 0001223  95.6926 264.4205 15.08836287112582,6917.892,95.438,540.603,538.911,0.0
52453.0,STARLINK-3872,PAYLOAD,2024-05-20 06:40:41,15.08844253,0.0001327,53.2152,144.8437,80.2737,279.8405,0.00016979,2.416e-05,0.0,0 STARLINK-3872,1 52453U 22049C   24141.27825402  .00002416  00000-0  16979-3 0  9996,2 52453  53.2152 144.8437 0001327  80.2737 279.8405 15.08844253112717,6917.867,95.437,540.65,538.814,0.0
52453.0,STARLINK-3872,PAYLOAD,2024-05-21 04:56:05,15.08840244,0.0001293,53.2149,140.6801,80.3841,279.7297,0.00019195,2.768e-05,0.0,0 STARLINK-3872,1 52453U 22049C   24142.20561577  .00002768  00000-0  19195-3 0  9993,2 52453  53.2149 140.6801 0001293  80.3841 279.7297 15.08840244113019,6917.88,95.438,540.639,538.85,0.0
52453.0,STARLINK-3872,PAYLOAD,2024-05-21 09:42:14,15.08840797,0.0001252,53.2147,139.7886,78.8707,281.2425,0.00012999,1.782e-05,0.0,0 STARLINK-3872,1 52453U 22049C   24142.40433544  .00001782  00000-0  12999-3 0  9997,2 52453  53.2147 139.7886 0001252  78.8707 281.2425 15.08840797112885,6917.878,95.438,540.609,538.877,0.0
52453.0,STARLINK-3872,PAYLOAD,2024-05-22 04:46:52,15.08836079,0.0001251,53.2164,136.219,88.0623,272.0513,7.11e-06,-1.75e-06,0.0,0 STARLINK-3872,1 52453U 22049C   24143.19921986 -.00000175  00000-0  71100-5 0  9993,2 52453  53.2164 136.2190 0001251  88.0623 272.0513 15.08836079113169,6917.892,95.438,540.623,538.892,0.0
52453.0,STARLINK-3872,PAYLOAD,2024-05-22 06:22:15,15.08835527,0.0001286,53.2167,135.9222,94.1046,266.0093,-2.7271e-06,-3.31e-06,0.0,0 STARLINK-3872,1 52453U 22049C   24143.26546009 -.00000331  00000-0 -27271-5 0  9995,2 52453  53.2167 135.9222 0001286  94.1046 266.0093 15.08835527113016,6917.894,95.438,540.649,538.869,0.0
52453.0,STARLINK-3872,PAYLOAD,2024-05-23 06:13:02,15.08837419,0.0001303,53.2168,131.4611,96.2805,263.8336,7.8315e-05,9.59e-06,0.0,0 STARLINK-3872,1 52453U 22049C   24144.25905829  .00000959  00000-0  78315-4 0  9992,2 52453  53.2168 131.4611 0001303  96.2805 263.8336 15.08837419113327,6917.888,95.438,540.655,538.852,0.0
52453.0,STARLINK-3872,PAYLOAD,2024-05-24 04:28:26,15.08838279,0.0001296,53.2166,127.2983,92.4547,267.6593,0.0001166,1.568e-05,0.0,0 STARLINK-3872,1 52453U 22049C   24145.18641870  .00001568  00000-0  11660-3 0  9994,2 52453  53.2166 127.2983 0001296  92.4547 267.6593 15.08838279113302,6917.886,95.438,540.647,538.854,0.0
52453.0,STARLINK-3872,PAYLOAD,2024-05-24 21:57:41,15.08840492,0.0001321,53.2164,124.0291,93.6337,266.4807,6.1487e-05,6.91e-06,0.0,0 STARLINK-3872,1 52453U 22049C   24145.91505975  .00000691  00000-0  61487-4 0  9999,2 52453  53.2164 124.0291 0001321  93.6337 266.4807 15.08840492113570,6917.879,95.438,540.658,538.83,0.0
52453.0,STARLINK-3872,PAYLOAD,2024-05-25 05:54:37,15.08834278,0.0001273,53.2163,122.5386,87.8301,272.2837,-2.7639e-06,-3.32e-06,0.0,0 STARLINK-3872,1 52453U 22049C   24146.24626610 -.00000332  00000-0 -27639-5 0  9992,2 52453  53.2163 122.5386 0001273  87.8301 272.2837 15.08834278113628,6917.898,95.438,540.644,538.882,0.0
52453.0,STARLINK-3872,PAYLOAD,2024-05-26 04:10:00,15.08843196,0.0001279,53.2165,118.3768,100.9599,259.1537,6.7387e-05,7.85e-06,0.0,0 STARLINK-3872,1 52453U 22049C   24147.17361958  .00000785  00000-0  67387-4 0  9999,2 52453  53.2165 118.3768 0001279 100.9599 259.1537 15.08843196113764,6917.871,95.437,540.62,538.851,0.0
52453.0,STARLINK-3872,PAYLOAD,2024-05-26 05:45:24,15.08839619,0.0001369,53.2169,118.0782,85.7515,274.3634,4.5907e-05,4.43e-06,0.0,0 STARLINK-3872,1 52453U 22049C   24147.23986337  .00000443  00000-0  45907-4 0  9995,2 52453  53.2169 118.0782 0001369  85.7515 274.3634 15.08839619113615,6917.882,95.438,540.694,538.799,0.0
52453.0,STARLINK-3872,PAYLOAD,2024-05-26 21:39:15,15.08834782,0.0001274,53.2169,115.1061,96.6433,263.4704,9.4716e-05,1.22e-05,0.0,0 STARLINK-3872,1 52453U 22049C   24147.90226452  .00001220  00000-0  94716-4 0  9990,2 52453  53.2169 115.1061 0001274  96.6433 263.4704 15.08834782113879,6917.896,95.438,540.643,538.88,0.0
